{
  "norad_id": 48399,
  "name": "STARLINK-2587",
  "history": [
    {
      "epoch": "2026-03-28T16:49:43.248000Z",
      "apogee_km": 475.6657585120338,
      "perigee_km": 474.7424763966901,
      "latitude_deg": 3.9109873905720515e-05,
      "longitude_deg": 165.744963963023,
      "height_km": 476.0586479003626,
      "semi_major_axis_km": 6853.341117454362,
      "eccentricity": 6.736e-05,
      "inclination_deg": 53.1575,
      "raan_deg": 244.293,
      "arg_perigee_deg": 84.522,
      "mean_anomaly_deg": 275.5858,
      "mean_motion_rev_day": 15.30203668
    },
    {
      "epoch": "2026-03-29T03:48:05.791968Z",
      "apogee_km": 475.76266863818637,
      "perigee_km": 474.6688735359221,
      "latitude_deg": -4.083125584702217e-06,
      "longitude_deg": -1.425743632665606,
      "height_km": 476.1991290437095,
      "semi_major_axis_km": 6853.352771087054,
      "eccentricity": 7.98e-05,
      "inclination_deg": 53.1579,
      "raan_deg": 242.1669,
      "arg_perigee_deg": 98.927,
      "mean_anomaly_deg": 261.1821,
      "mean_motion_rev_day": 15.30199765
    },
    {
      "epoch": "2026-03-30T03:18:54.138240Z",
      "apogee_km": 476.11059051756547,
      "perigee_km": 474.341052237085,
      "latitude_deg": -3.5339915258551845e-05,
      "longitude_deg": 0.356928630345958,
      "height_km": 476.1735599155599,
      "semi_major_axis_km": 6853.3628213773245,
      "eccentricity": 0.0001291,
      "inclination_deg": 53.1602,
      "raan_deg": 237.6167,
      "arg_perigee_deg": 93.2179,
      "mean_anomaly_deg": 266.8969,
      "mean_motion_rev_day": 15.30196399
    },
    {
      "epoch": "2026-03-30T09:35:06.578880Z",
      "apogee_km": 475.9526707936984,
      "perigee_km": 474.4376731837592,
      "latitude_deg": 3.236105474760359e-05,
      "longitude_deg": -95.16596140313553,
      "height_km": 476.0116823264389,
      "semi_major_axis_km": 6853.332171988729,
      "eccentricity": 0.00011053,
      "inclination_deg": 53.1581,
      "raan_deg": 236.4031,
      "arg_perigee_deg": 83.8165,
      "mean_anomaly_deg": 276.2962,
      "mean_motion_rev_day": 15.30206664
    },
    {
      "epoch": "2026-03-30T17:25:22.319328Z",
      "apogee_km": 475.94476356870564,
      "perigee_km": 474.35206003900294,
      "latitude_deg": 9.970733392898128e-06,
      "longitude_deg": 145.43005395658744,
      "height_km": 475.879878635817,
      "semi_major_axis_km": 6853.285411803854,
      "eccentricity": 0.0001162,
      "inclination_deg": 53.1587,
      "raan_deg": 234.8866,
      "arg_perigee_deg": 77.9198,
      "mean_anomaly_deg": 282.1933,
      "mean_motion_rev_day": 15.30222325
    },
    {
      "epoch": "2026-03-31T18:30:14.484672Z",
      "apogee_km": 476.9948688681234,
      "perigee_km": 473.5092351962603,
      "latitude_deg": 4.677443304761118e-05,
      "longitude_deg": 123.32848065815698,
      "height_km": 475.9635434820452,
      "semi_major_axis_km": 6853.389052032192,
      "eccentricity": 0.0002543,
      "inclination_deg": 53.1592,
      "raan_deg": 230.0324,
      "arg_perigee_deg": 83.918,
      "mean_anomaly_deg": 276.2111,
      "mean_motion_rev_day": 15.30187614
    },
    {
      "epoch": "2026-04-01T02:20:30.175008Z",
      "apogee_km": 476.0785873660707,
      "perigee_km": 474.39416525763954,
      "latitude_deg": -1.8937290046869255e-05,
      "longitude_deg": 3.924573177548105,
      "height_km": 476.0814315800655,
      "semi_major_axis_km": 6853.373376311854,
      "eccentricity": 0.00012289,
      "inclination_deg": 53.1592,
      "raan_deg": 228.5158,
      "arg_perigee_deg": 86.3924,
      "mean_anomaly_deg": 273.7217,
      "mean_motion_rev_day": 15.30192864
    },
    {
      "epoch": "2026-04-02T17:31:49.939968Z",
      "apogee_km": 475.70439093486493,
      "perigee_km": 474.63938673354005,
      "latitude_deg": 2.137444474106375e-05,
      "longitude_deg": 126.89762303916085,
      "height_km": 476.0737442724876,
      "semi_major_axis_km": 6853.308888834202,
      "eccentricity": 7.77e-05,
      "inclination_deg": 53.1578,
      "raan_deg": 220.9306,
      "arg_perigee_deg": 90.361,
      "mean_anomaly_deg": 269.748,
      "mean_motion_rev_day": 15.30214462
    }
  ]
}